address,categories,city,latitude,longitude,name,postalCode,province
162 Old Country Rd,Fast Food Restaurants,Riverhead,40.937359,-72.650142,Seven-Eleven,11901,NY
1611 Broadway,Fast Food,Brooklyn,40.685506,-73.914457,Checkers,11207,NY
1224 State St,Fast Food,Schenectady,42.79792,-73.924364,McDonald's,12304,NY
1232 Ulster Ave,Fast Food Restaurant,Kingston,41.967079,-73.988583,McDonald's,12401,NY
1188 Avenue of The Americas,Fast Food Restaurant,New York,40.757558,-73.981671,McDonald's,10036,NY
114 Delancey St,Fast Food Restaurant,New York,40.718943,-73.988306,McDonald's,10002,NY
1050 Front St,Fast Food Restaurants,Uniondale,40.709646,-73.591453,McDonald's,11553,NY
105 Jericho Tpke,Fast Food Restaurant,Jericho,40.780233,-73.55934,McDonald's,11753,NY
105 Jericho Tpke,Fast Food,Jericho,40.780233,-73.55934,McDonald's,11753,NY
106 Wolf Rd,Fast Food Restaurants,Albany,42.716812,-73.809319,McDonald's,12205,NY
101 E 170th St,Fast Food,Bronx,40.839569,-73.915927,McDonald's,10452,NY
103 Brookview Dr,Fast Food,Schenectady,42.741061,-73.913673,McDonald's,12303,NY
1028 Mckinley Pkwy,Fast Food Restaurants,Buffalo,42.857899,-78.825089,McDonald's,14220,NY
10 Main St,Fast Food Restaurants,Tonawanda,43.021019,-78.878167,McDonald's,14150,NY
2680 Market St,Fast food restaurants,Christiansburg,37.16537,-80.422283,Burger King,24073,VA
2650 Market St,Fast Food Restaurant,Christiansburg,37.166086,-80.422225,Arby's,24073,VA
2680 Market St,Fast Food Restaurant,Christiansburg,37.16537,-80.422283,Burger King,24073,VA
1004 S Main St,Fast food restaurants,Farmville,37.289041,-78.397491,Burger King,23901,VA
1709 Allied Ln,Fast Food Restaurants,Charlottesville,38.04129,-78.47775,Glorious Foods Gourmet to go & Catering,22903,VA
707 Washington Ave,Fast Food,Chestertown,39.224652,-76.06993,Arby's,21620,MD
707 Washington Ave,Fast Food Restaurant,Chestertown,39.224652,-76.06993,Arby's,21620,MD
6385 Dobbin Rd,Fast food restaurants,Columbia,39.196116,-76.82101,McDonald's,21045,MD
6241 Washington Blvd,Fast Food Restaurant,Elkridge,39.208926,-76.724769,Burger King,21075,MD
470 Cummings St,Fast Food,Abingdon,36.705143,-81.974501,Arby's,24210,VA
470 Cummings St,Fast Food Restaurants,Abingdon,36.705143,-81.974501,Arby's,24210,VA
6308 Richmond Hwy,"Sandwich Place, Pizza Place, and Fast Food Restaurant",Alexandria,38.78022,-77.07939,Jerry's Subs & Pizza,22306,VA
6308 Richmond Hwy,Fast Food Restaurants,Alexandria,38.78022,-77.07939,Jerry's Subs & Pizza,22306,VA
313 Middle Country Rd,Fast food restaurants,Coram,40.869655,-72.999817,McDonald's,11727,NY
9711 Fort Meade Rd,Fast Food Restaurants,Laurel,39.095464,-76.837806,Jerry's Subs & Pizza,20707,MD
92 W Market St,Fast Food Restaurants,Corning,42.1439,-77.0583,Rico's Pizza & Subs,14830,NY
2 Wicks Blvd,Fast Food Restaurants,Corning,42.13151,-77.03608,B's Pizza,14830,NY
1104 Sunrise Hwy,Fast food restaurants,Amityville,40.689896,-73.408119,Burger King,11701,NY
2619 Brandermill Blvd,Fast Food Restaurant and Burger Joint,Gambrills,39.037925,-76.678372,Burger King,21054,MD
104 School St,Fast Food Restaurants,Glen Cove,40.8672,-73.6307,Domino's Pizza,11542,NY
2188 Great Neck Sq,Fast Food Restaurants,Virginia Beach,36.875281,-76.038915,Hardee's,23454,VA
505 W 21st St,Fast Food Restaurants,Norfolk,36.869021,-76.291956,Hardee's,23517,VA
5000 W Broad St,Fast Food Restaurant,Richmond,37.585167,-77.496783,Hardee's,23230,VA
3011 Hershberger Rd NW,Fast Food Restaurant,Roanoke,37.303452,-79.983783,Hardee's,24017,VA
850 London Blvd,Fast Food Restaurant,Portsmouth,36.836845,-76.308136,Hardee's,23704,VA
1032 E Main St,Fast Food Restaurant,Pulaski,37.048369,-80.759749,Hardee's,24301,VA
8405 Hampton Blvd,Fast Food Restaurants,Norfolk,36.929187,-76.317875,Hardee's,23505,VA
430 Denbigh Blvd,Fast Food Restaurant,Newport News,37.131199,-76.532961,Hardee's,23608,VA
3750 Candlers Mountain Rd,Fast Food Restaurant,Lynchburg,37.365812,-79.172249,Hardee's,24502,VA
501 S Hicks St,Fast Food Restaurant,Lawrenceville,36.752234,-77.852597,Hardee's,23868,VA
2231 Langhorne Rd,Fast Food Restaurant,Lynchburg,37.412957,-79.173991,Hardee's,24501,VA
8010 Sudley Rd,Fast Food Restaurant,Manassas,38.78166,-77.51244,Wendy's,20109,VA
4513 Williamson Rd NW,"Pizza Place, Fast Food Restaurant, and Italian Restaurant Preston Park",Roanoke,37.313592,-79.952038,Papa John's Pizza,24012,VA
1783 Roanoke Rd,"Pizza Place, Italian Restaurant, and Fast Food Restaurant",Daleville,37.41027,-79.913083,Papa John's Pizza,24083,VA
7602 13th Ave,Fast Food,Brooklyn,40.619683,-74.008071,Dunkin' Donuts,11228,NY
56 Court St,Fast Food,Brooklyn,40.692187,-73.991162,Dunkin' Donuts,11201,NY
1309 Fulton St,Fast Food,Brooklyn,40.680355,-73.948909,Dunkin' Donuts,11216,NY
4115 3rd Ave,Fast Food,Bronx,40.844458,-73.89729,Dunkin' Donuts,10457,NY
3732 E Tremont Ave,Fast Food,Bronx,40.826478,-73.821994,Dunkin' Donuts,10465,NY
10721 Jefferson Ave,Fast Food Restaurant and Burger Joint South Newport News,Newport News,37.051114,-76.460806,Burger King,23601,VA
1301 S Salisbury Blvd,Fast Food Restaurants,Salisbury,38.342966,-75.604458,Hardee's,21801,MD
718 Nursery Rd,Fast Food Restaurants,Linthicum Heights,39.224397,-76.659193,Hardee's,21090,MD
800 Woods Rd,Fast Food Restaurants,Cambridge,38.557459,-76.060385,Hardee's,21613,MD
5003a Victory Blvd,Fast Food Restaurant,Yorktown,37.115608,-76.468184,Chick-fil-A,23693,VA
6732 Mooretown Rd,Fast Food Restaurants,Williamsburg,37.33953,-76.738285,Chick-fil-A,23188,VA
5409 Indian River Rd,Fast Food Restaurants,Virginia Beach,36.798702,-76.178946,Chick-fil-A,23464,VA
4802 Valley View Blvd NW,"Fast Food Restaurant, American Restaurant, and Sandwich Place",Roanoke,37.308619,-79.962426,Chick-fil-A,24012,VA
4802 Valley View Blvd NW,Fast Food Restaurant,Roanoke,37.308619,-79.962426,Chick-fil-A,24012,VA
4374 Electric Rd,Fast Food Restaurants,Roanoke,37.228457,-79.977693,Chick-fil-A,24018,VA
9100 W Broad St,Fast Food Restaurants,Henrico,37.636558,-77.549903,Chick-fil-A,23294,VA
1205 N Military Hwy,Fast Food Restaurant,Norfolk,36.864964,-76.210719,Chick-fil-A,23502,VA
2901 Candlers Mountain Rd,"Fast Food Restaurant, American Restaurant, and Sandwich Place",Lynchburg,37.36773,-79.175586,Chick-fil-A,24502,VA
2140 Coliseum Dr,Fast Food Restaurants,Hampton,37.048521,-76.390717,Chick-fil-A,23666,VA
1698 Carl D Silver Pkwy,Fast Food Restaurant,Fredericksburg,38.305008,-77.509345,Chick-fil-A,22401,VA
325 Piedmont Dr,Fast Food Restaurant,Danville,36.595957,-79.422353,Chick-fil-A,24540,VA
4412 Chantilly Pl,"Fast Food Restaurant, American Restaurant, and Sandwich Place",Chantilly,38.887485,-77.444623,Chick-fil-A,20151,VA
1576 Rio Rd E,Fast Food Restaurants,Charlottesville,38.078584,-78.473337,Chick-fil-A,22901,VA
350 Woodbrook Dr,Fast Food Restaurants,Charlottesville,38.088272,-78.471184,Chick-fil-A,22901,VA
8428 Baltimore Ave,Fast Food Restaurants,College Park,38.993906,-76.932576,Taco Bell,20740,MD
8428 Baltimore Ave,Fast Food Restaurant,College Park,38.993906,-76.932576,Taco Bell,20740,MD
3201 E Ocean View Ave,Fast Food Restaurants,Norfolk,36.932528,-76.203127,Chanello's Pizza,23518,VA
215 E 201st St,Fast Food,Bronx,40.872503,-73.886546,Dunkin' Donuts,10458,NY
2241 Southern Blvd,Fast Food,Bronx,40.84862,-73.883004,Dunkin' Donuts,10460,NY
1285 Castle Hill Ave,Fast Food,Bronx,40.833843,-73.851523,Dunkin' Donuts,10462,NY
3114 Ditmars Blvd,Fast Food,Astoria,40.775826,-73.910275,Dunkin' Donuts,11105,NY
345 Spotsylvania Mall,Bakery & Pastries / American / Fast Food,Fredericksburg,38.292937,-77.513196,Auntie Anne's Pretzels,22407,VA
6108C Arlington Blvd,Fast Food Restaurant,Falls Church,38.868724,-77.144013,Chick-fil-A,22044,VA
6108C Arlington Blvd,Fast Food Restaurants,Falls Church,38.868724,-77.144013,Chick-fil-A,22044,VA
4675 Cleburne Blvd,"Fast Food Restaurant, Sandwich Place, and American Restaurant",Dublin,37.084733,-80.690316,Arby's,24084,VA
75 Market Street,Fast Food Restaurant,Gordonsville,37.979247,-78.210747,Arby's,22942,VA
1282 S Boston Rd,Fast food restaurants,Danville,36.582443,-79.351877,Burger King,24540,VA
7878 Pocomoke Dr,Fast Food Restaurants,Jessup,39.167616,-76.783963,McDonald's,20794,MD
7053 Arundel Mills Cir,Fast Food Restaurant,Hanover,39.153002,-76.723817,McDonald's,21076,MD
4396 Montgomery Rd,Fast Food Restaurant,Ellicott City,39.250777,-76.813101,McDonald's,21043,MD
226 Belle Hill Rd,Fast food restaurants,Elkton,39.635133,-75.805571,McDonald's,21921,MD
2222 Dundalk Ave,Fast Food Restaurant,Dundalk,39.264906,-76.527427,McDonald's,21222,MD
2222 Dundalk Ave,Fast Food Restaurant Saint Helena,Dundalk,39.264906,-76.527427,McDonald's,21222,MD
10 Maryland Ave,Fast Food Restaurant,Crisfield,37.991003,-75.844143,McDonald's,21817,MD
7244 Cradlerock Way,Fast Food Restaurant,Columbia,39.185679,-76.843415,McDonald's,21045,MD
6095 Daybreak Cir,Fast Food,Clarksville,39.210178,-76.937833,McDonald's,21029,MD
875 Washington Ave,Fast Food Restaurant,Chestertown,39.225371,-76.070907,McDonald's,21620,MD
6447 Baltimore National Pike,Fast Food Restaurant,Catonsville,39.284946,-76.759683,McDonald's,21228,MD
942 Flatbush Ave,Fast Food Restaurant,Brooklyn,40.648476,-73.958572,KFC,11226,NY
18234 Maugans Ave,Fast Food Restaurant,Hagerstown,39.691607,-77.738818,Burger King,21740,MD
17532 Valley Mall Rd,Fast Food Restaurant,Hagerstown,39.626191,-77.767691,Burger King,21740,MD
10516 Sharpsburg Pike,Fast Food Restaurant,Hagerstown,39.600468,-77.729678,Burger King,21740,MD
2811 Chestnut Ridge Rd,Fast Food Restaurant and Burger Joint,Grantsville,39.690789,-79.103802,Burger King,21536,MD
1299 National Hwy,Fast Food Restaurants,Cumberland,39.637928,-78.832937,Burger King,21502,MD
6 Hampton Inn Dr,Fast Food Restaurants,Frostburg,39.642962,-78.909752,Burger King,21532,MD
8022 Liberty Rd,Fast Food Restaurants,Windsor Mill,39.353322,-76.755754,Burger King,21244,MD
8022 Liberty Rd,Fast Food Restaurant,Windsor Mill,39.353322,-76.755754,Burger King,21244,MD
8304 Pulaski Hwy,Fast food restaurants,Rosedale,39.32338,-76.502491,Burger King,21237,MD
8304 Pulaski Hwy,Fast Food Restaurant,Rosedale,39.32338,-76.502491,Burger King,21237,MD
5604 Baltimore National Pike,Fast Food Restaurant,Catonsville,39.289591,-76.726646,Burger King,21228,MD
6807 Rolling Mill Rd,Fast Food Restaurants,Baltimore,39.297176,-76.529346,Burger King,21224,MD
990 Pulaski Hwy,Fast Food Restaurant,Havre de Grace,39.546763,-76.106205,Burger King,21078,MD
14 Mountain Rd,"Fast Food Restaurant, Burger Joint, and American Restaurant",Glen Burnie,39.135989,-76.597223,Burger King,21060,MD
12265 Veirs Mill Rd,Fast Food Restaurant,Silver Spring,39.05768,-77.084654,Burger King,20906,MD
6505 Annapolis Rd,Fast Food Restaurant,Hyattsville,38.939492,-76.906024,Burger King,20784,MD
2208 University Blvd E,Fast Food Restaurants,Hyattsville,38.984017,-76.975083,Burger King,20783,MD
2208 University Blvd E,Fast Food Restaurant,Hyattsville,38.984017,-76.975083,Burger King,20783,MD
7400 Ritchie Hwy,Fast Food Restaurants,Glen Burnie,39.167289,-76.622321,Taco Bell,21061,MD
3000 Chestnut Ridge Rd,Fast Food Restaurant,Grantsville,39.692319,-79.100152,Arby's,21536,MD
8672 Pulaski Highway,Fast Food,Rosedale,39.336473,-76.483844,Arby's,21237,MD
60 Commerce Ln,Fast Food Restaurants,Prince Frederick,38.54299,-76.587957,Bob Evans,20678,MD
8325 Benson Dr,Fast Food Restaurants,Columbia,39.187302,-76.798972,Bob Evans,21045,MD
6336 Baltimore National Pike,Fast Food Restaurants,Catonsville,39.284101,-76.755971,Bob Evans,21228,MD
5001 Victory Blvd,Fast Food Restaurant,Yorktown,37.116291,-76.465648,Hardee's,23693,VA
403 W Main St,Fast Food Restaurants,Wise,36.977969,-82.580684,Hardee's,24293,VA
208 McGuinness Blvd,Fast Food Restaurant,Brooklyn,40.729763,-73.950623,KFC,11222,NY
30 Wheeler Ave,Fast Food Restaurants,Pleasantville,41.134601,-73.792256,Pony Express To Go,10570,NY
4010 82nd St,Fried Chicken Joint and Fast Food Restaurant Elmhurst,Elmhurst,40.747262,-73.884064,Popeyes,11373,NY
6250 Central Ave,Fast Food Restaurant,Capitol Heights,38.887058,-76.899635,Taco Bell,20743,MD
8475 Cordon Way,Fast Food Restaurant,Nottingham,39.377515,-76.458366,Taco Bell,21236,MD
798 N Main Street,Fast Food,Marion,36.839552,-81.507778,Taco Bell,24354,VA
7791 Sudley Rd,Fast Food Restaurant,Manassas,38.788199,-77.513481,Taco Bell,20109,VA
11 Mall Walk,Fast Food,Yonkers,40.928279,-73.856806,Mrs. Fields,10704,NY
324 Elmira Rd,Fast Food Restaurants,Ithaca,42.426062,-76.512148,Moe's Southwest Grill,14850,NY
1213 Erie Blvd W,Fast Food Restaurants,Rome,43.225649,-75.487435,Subway,13440,NY
8421 5th Ave,Fast Food Restaurants,Brooklyn,40.622718,-74.025413,Subway,11209,NY
6165 Strickland Ave,Fast Food,Brooklyn,40.612944,-73.912249,Subway,11234,NY
4280 Katonah Ave,Fast Food,Bronx,40.897993,-73.86726,Subway,10470,NY
1066 Madison Ave,Fast Food Restaurants,Albany,42.665166,-73.79057,Subway,12208,NY
12765 Broadway St,Fast Food Restaurants,Alden,42.894841,-78.511352,Subway,14004,NY
3927 Victory Blvd,Fast Food Restaurants,Portsmouth,36.80945,-76.358526,Bojangles' Famous Chicken 'n Biscuits,23701,VA
12441 Warwick Blvd,Fast Food Restaurant,Newport News,37.071603,-76.493955,Bojangles' Famous Chicken 'n Biscuits,23606,VA
9380 Baltimore National Pike,Fast Food Restaurant,Ellicott City,39.277705,-76.834387,Boston Market,21042,MD
1350 W Patrick St,Fast Food Restaurant,Frederick,39.418888,-77.45781,Boston Market,21703,MD
3633 Broadway,Fast Food Restaurants,New York,40.829441,-73.948612,Crown Fried Chicken,10031,NY
2610 N Franklin Street,Fast Food,Christiansburg,37.167113,-80.423093,Panera Bread,24073,VA
2375 Merrick Road,Fast Food,Bellmore,40.661712,-73.537962,Panera Bread,11710,NY
93 Church Ave,Fast Food Restaurants,Brooklyn,40.642662,-73.979786,Subway,11218,NY
1092 Flatbush Ave,Fast Food,Brooklyn,40.643839,-73.957869,Subway,11226,NY
1503 Sheepshead Bay Rd,Fast Food Restaurants,Brooklyn,40.587419,-73.954224,Subway,11235,NY
2505 Southern Blvd,Fast Food,Bronx,40.856544,-73.880765,McDonald's,10458,NY
2505 Southern Blvd,Fast Food Restaurant,Bronx,40.856544,-73.880765,McDonald's,10458,NY
3280 Monroe Ave,Fast Food,Rochester,43.104559,-77.53872,McDonald's,14618,NY
317 Broadway,Fast Food,New York,40.715763,-74.005342,McDonald's,10007,NY
289 9th St,Fast Food,Brooklyn,40.669493,-73.986949,McDonald's,11215,NY
31 Holland Ave,Fast Food Restaurants,Albany,42.647323,-73.771918,McDonald's,12209,NY
3207 Erie Blvd E,Fast Food Restaurant,Syracuse,43.051788,-76.073175,McDonald's,13214,NY
315 Meadow Dr,Fast Food Restaurant,North Tonawanda,43.052286,-78.874572,McDonald's,14120,NY
3120 Niagara Falls Blvd,Fast Food Restaurant,Buffalo,43.039404,-78.824138,McDonald's,14228,NY
280 N Broadway,Fast Food Restaurants,Hicksville,40.777408,-73.529924,McDonald's,11801,NY
262 Canal St,Fast Food,New York,40.71851,-74.001157,McDonald's,10013,NY
274 Genesee St,Fast Food Restaurants,Oneida,43.07858,-75.650915,McDonald's,13421,NY
265 Nassau Rd,Fast Food Restaurant,Roosevelt,40.679047,-73.589571,McDonald's,11575,NY
262 Grider St,Fast Food,Buffalo,42.921505,-78.829117,McDonald's,14215,NY
2554 Central Park Ave,Fast Food Restaurant,Yonkers,40.982557,-73.828288,McDonald's,10710,NY
2341 Ridge Rd W,Fast Food,Rochester,43.208938,-77.690354,McDonald's,14626,NY
255 Carder Lane Rd,Fast Food Restaurants,Frankfort,43.074814,-75.098029,McDonald's,13340,NY
2410 Coney Island Ave,Fast Food,Brooklyn,40.598167,-73.961241,McDonald's,11223,NY
241 W Ferry St,Fast Food Restaurant,Buffalo,42.91523,-78.892305,McDonald's,14213,NY
241 W Ferry St,Fast Food,Buffalo,42.91523,-78.892305,McDonald's,14213,NY
2361 Hempstead Tpke,Fast food restaurants,East Meadow,40.72495,-73.54767,McDonald's,11554,NY
2240 Flatbush Ave,Fast Food Restaurants,Brooklyn,40.615378,-73.928896,McDonald's,11234,NY
205 Delaware St,Fast Food,Walton,42.168416,-75.13309,McDonald's,13856,NY
2058 Elmwood Ave,Fast Food Restaurant Military,Buffalo,42.953142,-78.878979,McDonald's,14207,NY
1701 Sunrise Hwy,Fast Food,Bay Shore,40.740276,-73.247418,Checkers,11706,NY
136 Sunrise Hwy,Fast Food Restaurant,Lindenhurst,40.702989,-73.376663,Checkers,11757,NY
1814 Central Ave,Fast Food,Albany,42.730804,-73.847902,McDonald's,12205,NY
1814 Central Ave,Fast Food Restaurant,Albany,42.730804,-73.847902,McDonald's,12205,NY
2010 Bartow Ave,Fast Food Restaurant,Bronx,40.869027,-73.830529,McDonald's,10475,NY
1997 3rd Ave,Fast Food,New York,40.793822,-73.942653,McDonald's,10029,NY
20 Welcher Ave,Fast Food Restaurant,Peekskill,41.270387,-73.935556,McDonald's,10566,NY
18 E 42nd St,Fast Food Restaurant,New York,40.752943,-73.980356,McDonald's,10017,NY
1724 Middle Country Rd,Fast Food Restaurant,Centereach,40.860103,-73.073078,McDonald's,11720,NY
1726 Pine Ave,Fast Food Restaurants,Niagara Falls,43.096744,-79.040168,McDonald's,14301,NY
1726 Pine Ave,Fast Food,Niagara Falls,43.096744,-79.040168,McDonald's,14301,NY
1531 Fulton St,Fast Food Restaurant,Brooklyn,40.679992,-73.939823,McDonald's,11216,NY
17 Ernst Pl,Fast Food,East Aurora,42.767682,-78.629373,McDonald's,14052,NY
136 W 3rd St,Fast Food Restaurant,New York,40.730757,-74.001115,McDonald's,10012,NY
1651 Broadway,Fast Food Restaurant,New York,40.762606,-73.983729,McDonald's,10019,NY
1510 Deer Park Ave,Fast Food Restaurant,North Babylon,40.748132,-73.324162,McDonald's,11703,NY
155 S Broadway,Fast Food Restaurants,Yonkers,40.927281,-73.895971,McDonald's,10701,NY
1255 Grand Ave,Fast Food,Baldwin,40.679658,-73.614801,McDonald's,11510,NY
1467 Rockaway Pkwy,Fast Food Restaurants,Brooklyn,40.644484,-73.901599,McDonald's,11236,NY
1450 Lyell Ave,Fast Food Restaurants,Rochester,43.166182,-77.661584,McDonald's,14606,NY
1450 Lyell Ave,Fast Food Restaurant Lyell-Otis,Rochester,43.166182,-77.661584,McDonald's,14606,NY
1317 Castle Hill Ave,Fast Food,Bronx,40.835001,-73.851924,McDonald's,10462,NY
1380 Broadway,Fast Food Restaurants,Brooklyn,40.68925,-73.921634,McDonald's,11221,NY
13 W Suffolk Ave,Fast food restaurants,Central Islip,40.790177,-73.204118,McDonald's,11722,NY
1338 Main St,Fast Food Restaurant,Buffalo,42.91018,-78.867002,McDonald's,14209,NY
10940 Lee Highway,Fast Food Restaurant,Fairfax,38.853833,-77.321556,Five Guys,22030,VA
400 Oriskany Blvd,Fast Food,Yorkville,43.114231,-75.27634,Taco Bell,13495,NY
139 Flatbush Ave,Fast Food Restaurant,Brooklyn,40.684698,-73.976819,Mc Donalds,11217,NY
139 Flatbush Ave,Fast Food Restaurant and Burger Joint,Brooklyn,40.684698,-73.976819,Mc Donalds,11217,NY
825 Dulaney Valley Rd Ste 3285,Fast Food Restaurant,Towson,39.403864,-76.59874,Chick-fil-A,21204,MD
4418 Chantilly Place,Fast Food,Chantilly,38.886621,-77.44445,Taco Bell,20151,VA
4388 South Laburnum Avenue,Fast Food,Henrico,37.529229,-77.358994,Taco Bell,23231,VA
500 Liberty St,Fast Food Restaurants,Martinsville,36.696902,-79.87424,Taco Bell,24112,VA
511 Old Country Rd,Fast Food Restaurant,Westbury,40.747139,-73.594456,Taco Bell,11590,NY
4248 Dale Blvd,Fast Food Restaurants,Woodbridge,38.646533,-77.337168,Taco Bell,22193,VA
4248 Dale Blvd,Fast Food Restaurant,Woodbridge,38.646533,-77.337168,Taco Bell,22193,VA
6200 Baltimore National Pike,Fast Food Restaurant,Catonsville,39.284038,-76.750477,Taco Bell,21228,MD
238 Main St,Fast Food Restaurant and Burger Joint,New Paltz,41.743814,-74.072672,Burger King,12561,NY
230 N Bedford Rd,Fast Food Restaurant,Mount Kisco,41.215869,-73.719627,Burger King,10549,NY
164 S Main St,Fast Food Restaurant,New City,41.141787,-73.990441,Burger King,10956,NY
1727 Merrick Rd,Fast food restaurants,Merrick,40.654022,-73.558266,Burger King,11566,NY
1727 Merrick Rd,Fast Food Restaurant and Burger Joint,Merrick,40.654022,-73.558266,Burger King,11566,NY
2 E Park Ave,Fast Food Restaurant,Long Beach,40.58838,-73.663894,Burger King,11561,NY
4035 State Route 31,Fast Food Restaurant,Liverpool,43.185498,-76.234803,Burger King,13090,NY
47 Sullivan Ave,Fast Food Restaurant and Burger Joint,Liberty,41.78515,-74.729017,Burger King,12754,NY
334 N Broadway,Fast Food Restaurant and Burger Joint,Jericho,40.784274,-73.533208,Burger King,11753,NY
1010 Ellis Hollow Rd,Fast Food Restaurants,Ithaca,42.436049,-76.463555,Burger King,14850,NY
1830 Rosemont Ave,Fast Food Restaurants,Frederick,39.429866,-77.433061,Pizza Hut,21702,MD
210 S Seton Ave,Fast Food Restaurants,Emmitsburg,39.702421,-77.327782,Pizza Hut,21727,MD
11002 Nicholas Ln,Fast Food Restaurants,Berlin,38.375899,-75.162531,Pizza Hut,21811,MD
13053 Worldgate Dr,Sandwiches / Wraps / Fast Food,Herndon,38.957842,-77.399906,Quiznos Sub,20170,VA
2837 Gallows Rd,"Sandwich Place, Fast Food Restaurant, and Soup Place",Falls Church,38.873625,-77.22711,Quiznos,22042,VA
1512 Clarendon Blvd,Fast Food Restaurants,Arlington,38.89367,-77.074348,Jimmy John's,22209,VA
7351 Assateague Dr,Fast Food Restaurants,Jessup,39.168455,-76.785828,Panda Express,20794,MD
7351 Assateague Dr,Fast Food Restaurant,Jessup,39.168455,-76.785828,Panda Express,20794,MD
3100 Xavier Dr,Fast Food Restaurant Southeast Yonkers,Yonkers,40.927132,-73.852638,Boston Market,10704,NY
3100 Xavier Dr,Fast Food Restaurant,Yonkers,40.927132,-73.852638,Boston Market,10704,NY
6365 Woodhaven Blvd,Fast Food,Rego Park,40.722731,-73.867589,Dunkin' Donuts,11374,NY
302 5th Ave,Fast Food,New York,40.746711,-73.986133,Dunkin' Donuts,10001,NY
269 8th Ave,Fast Food,New York,40.745683,-73.998192,Dunkin' Donuts,10011,NY
7609 Harford Rd,Fast Food Restaurant,Parkville,39.372186,-76.544235,SUBWAY,21234,MD
79 Broadway,Fast Food Restaurant,Albany,42.681358,-73.73074,Subway,12204,NY
2601 George Washington Mem Hwy,Fast Food Restaurants,Yorktown,37.121834,-76.457525,Subway,23693,VA
225 1st Ave,Fast Food Restaurants,New York,40.731006,-73.983114,Checkers,10003,NY
225 1st Ave,Fast Food Restaurant,New York,40.731006,-73.983114,Checkers,10003,NY
21006 Timberlake Rd,Fast Food Restaurant,Lynchburg,37.304998,-79.285456,Burger King,24502,VA
5320 James Madison Pkwy,Fast Food Restaurant,King George,38.340674,-77.073788,Burger King,22485,VA
2101 Willis Rd,Fast Food Restaurant,Richmond,37.401788,-77.422582,Waffle House,23237,VA
110 Wall St,Fast Food Restaurant,New York,40.704903,-74.006416,Fuku,10005,NY
6151 State Hwy 12,Fast Food Restaurant,Norwich,42.551292,-75.526063,Arby's,13815,NY
2946 Ny Route 11,Fast Food,Whitney Point,42.336496,-75.973877,Arby's,13862,NY
4610 County Dr,Fast Food Restaurant,Disputanta,37.184644,-77.317661,Wendy's,23842,VA
4648 Cleburne Blvd,Fast Food Restaurants,Dublin,37.092806,-80.687838,Wendy's,24084,VA
404 E Market St,Fast Food Restaurants,Leesburg,39.110523,-77.555358,Wendy's,20176,VA
3904 Victory Blvd,Fast Food Restaurant,Portsmouth,36.80845,-76.357186,Wendy's,23701,VA
3601 Price Club Blvd,Fast Food Restaurant,Midlothian,37.441151,-77.587354,Wendy's,23112,VA
3601 Price Club Blvd,Fast Food Restaurant and Burger Joint,Midlothian,37.441151,-77.587354,Wendy's,23112,VA
3700 Tiffany Ln,Fast Food Restaurant,Virginia Beach,36.785421,-76.107585,Wendy's,23456,VA
3431 Columbia Pike,Fast Food Restaurants,Arlington,38.861199,-77.092349,Wendy's,22204,VA
327 W Reservoir Rd,Fast Food Restaurant and Burger Joint,Woodstock,38.870675,-78.524561,Wendy's,22664,VA
3461 Old Halifax Rd,Fast Food Restaurant,South Boston,36.73367,-78.909696,Wendy's,24592,VA
2801 Virginia Ave,Fast Food Restaurant,Collinsville,36.713656,-79.90856,Wendy's,24078,VA
2643 Front St,Fast Food Restaurant,Richlands,37.094144,-81.810756,Wendy's,24641,VA
2201 Pacific Ave,Fast Food Restaurant,Virginia Beach,36.850346,-75.976651,Wendy's,23451,VA
2120 John Rolfe Pkwy,Fast Food Restaurant and Burger Joint,Henrico,37.621105,-77.623965,Wendy's,23233,VA
2126 Ruffin Mill Rd,Fast Food Restaurant,Colonial Heights,37.309463,-77.391867,Wendy's,23834,VA
1804 Teall Ave,Fast Food Restaurants,Syracuse,43.072836,-76.123167,McDonald's,13206,NY
3336 Sheridan Dr,Fast Food Restaurants,Buffalo,42.980127,-78.810087,Jim's Steakout,14226,NY
135 Fairgrounds Memorial Pkwy,Fast Food Restaurants,Ithaca,42.427536,-76.514032,Subway,14850,NY
20206 Hillside Ave,Fast Food,Hollis,40.719967,-73.7619,Subway,11423,NY
2898 Westinghouse Rd,Fast Food Restaurants,Horseheads,42.176045,-76.836245,Subway,14845,NY
817 S 4th St,Fast Food Restaurants,Fulton,43.309285,-76.399598,Subway,13069,NY
402 Larkfield Rd,Fast Food Restaurants,East Northport,40.867109,-73.321775,Subway,11731,NY
4 Chevy Dr,Fast Food Restaurants,East Syracuse,43.058833,-76.063904,Subway,13057,NY
2801 W Broad St,Fast Food Restaurants,Richmond,37.562465,-77.470487,SUBWAY,23230,VA
9522 Crain Hwy,Fast Food Restaurants,Upper Marlboro,38.759753,-76.808197,Subway,20772,MD
978 Largo Center Dr,Fast Food Restaurants,Upper Marlboro,38.902002,-76.837682,Subway,20774,MD
8640 Guilford Rd,Fast Food Restaurants,Columbia,39.171137,-76.864313,Subway,21046,MD
9221 Lakeside Blvd,Fast Food Restaurant,Owings Mills,39.406774,-76.815798,Subway,21117,MD
9010 Ocean Hwy,Fast Food Restaurants,Westover,38.124444,-75.689687,Subway,21871,MD
8200 Perry Hall Blvd,Sandwich Place and Fast Food Restaurant,Nottingham,39.372607,-76.473885,Subway,21236,MD
7550 Teague Rd,Fast Food Restaurants,Hanover,39.1549,-76.715137,Subway,21076,MD
605 Potomac Station Drive NE,Fast Food,Leesburg,39.099042,-77.527803,Arby's,20176,VA
8127 Lee Hwy,Fast Food Restaurant,Falls Church,38.874359,-77.226243,Arby's,22042,VA
75 E Main St,Fast Food Restaurants,Walden,41.561477,-74.182425,Subway,12586,NY
32 Public Sq,Fast Food Restaurants,Watertown,43.974406,-75.909065,Subway,13601,NY
573 Uniondale Ave,Fast Food Restaurants,Uniondale,40.700867,-73.593112,Subway,11553,NY
1135 Wicker St,Fast Food Restaurants,Ticonderoga,43.85731,-73.438339,Subway,12883,NY
1600 Burrstone Rd,Fast Food Restaurants,Utica,43.093512,-75.273095,Subway,13502,NY
2136 W Genesee St,Fast Food Restaurants,Syracuse,43.048031,-76.197329,Subway,13219,NY
317 S Cascade Dr,Fast Food Restaurants,Springville,42.50178,-78.689817,Subway,14141,NY
84 N Main St,Fast Food Restaurants,Sherburne,42.683888,-75.50159,Subway,13460,NY
164 Warrenton Rd,Fast Food Restaurant,Fredericksburg,38.332845,-77.478552,Arby's,22405,VA
5815 Burke Centre Pkwy,Fast Food Restaurants,Burke,38.79826,-77.3171,Chick-Fil-A,22015,VA
5815 Burke Centre Pkwy,Fast Food Restaurant,Burke,38.79826,-77.3171,Chick-Fil-A,22015,VA
4400 Chantilly Pl,"Restaurant, Fast Food Restaurant, and Sandwich Place",Chantilly,38.887225,-77.445014,Arby's,20151,VA
150 Columbia St,Fast Food Restaurants,Rensselaer,42.634217,-73.746431,Subway,12144,NY
110 Main St,Fast Food Restaurants,Queensbury,43.297384,-73.675218,Subway,12804,NY
82 Manetto Hill Mall,Fast Food Restaurants,Plainview,40.783113,-73.473275,Subway,11803,NY
725 Pittsford Victor Rd,Fast Food Restaurants,Pittsford,43.059871,-77.47538,Subway,14534,NY
416 S Service Rd,Fast Food Restaurants,Patchogue,40.780041,-72.997153,Subway,11772,NY
5615 Boydton Plank Rd,Fast Food Restaurant,Petersburg,37.19523,-77.468546,Burger King,23803,VA
172 W Old Cross Rd,Fast Food Restaurants,New Market,38.648463,-78.673912,Burger King,22844,VA
830 J Clyde Morris Blvd,Fast Food Restaurant,Newport News,37.084224,-76.458964,Burger King,23601,VA
2424 Memorial Ave,Fast Food Restaurants,Lynchburg,37.40225,-79.16747,Burger King,24501,VA
115 Harvard Pl,Fast Food Restaurants,Syracuse,43.04166,-76.118817,Gangnam Style Korean Kitchen,13210,NY
3401 West Genesee Street,Fast Food,Syracuse,43.048106,-76.229913,Panera Bread,13219,NY
826 Central Park Ave,Fast food restaurants,Yonkers,40.929359,-73.857666,Burger King,10704,NY
409 Old Country Rd,Fast food restaurants,Westbury,40.746101,-73.599762,Burger King,11590,NY
3623 Palisades Center Dr,Fast Food Restaurant and Burger Joint,West Nyack,41.094497,-73.953459,Burger King,10994,NY
4228 Bolivar Rd,Fast Food Restaurants,Wellsville,42.126094,-77.969647,Burger King,14895,NY
300 Herkimer Rd,Fast Food Restaurant,Utica,43.114658,-75.205499,Burger King,13502,NY
6300 Thompson Rd,Fast Food Restaurant,Syracuse,43.07649,-76.088981,Burger King,13206,NY
4734 Onondaga Blvd,Fast Food Restaurants,Syracuse,43.032717,-76.192559,Burger King,13219,NY
3960 Sunrise Hwy,Fast Food Restaurant and Burger Joint,Seaford,40.674461,-73.485832,Burger King,11783,NY
1300 Chili Ave,Fast Food Restaurants,Rochester,43.138451,-77.671161,Burger King,14624,NY
5668 Baltimore National Pike,Fast Food Restaurant,Catonsville,39.288587,-76.729751,Chick-fil-A,21228,MD
8867 Belair Rd,Fast Food Restaurant,Nottingham,39.397186,-76.481889,Chick-fil-A,21236,MD
547 Merrick Rd,Fast Food Restaurants,Lynbrook,40.659923,-73.681577,Taco Bell,11563,NY
570 Sunrise Hwy,Fast Food Restaurant,Rockville Centre,40.657041,-73.630714,Taco Bell,11570,NY
1295 National Hwy,Fast Food Restaurants,Cumberland,39.63797,-78.832841,Long John Silver's,21502,MD
606 Broadhollow Rd,Fast Food Restaurants,Melville,40.76049,-73.422573,Long John Silver's,11747,NY
961 E 174th St,Fast Food,Bronx,40.836744,-73.885888,Subway,10460,NY
18 E 170th St,Fast Food,Bronx,40.840024,-73.917163,Subway,10452,NY
5987 Broadway,Fast Food,Bronx,40.889738,-73.898018,Subway,10471,NY
207 N Comrie Ave,Fast Food Restaurants,Johnstown,43.014532,-74.361439,Taco Bell,12095,NY
7120 Columbia Pike,Fast Food Restaurant,Annandale,38.832909,-77.191419,SUBWAY,22003,VA
1010 Nostrand Ave,Fast Food,Brooklyn,40.663767,-73.951168,SUBWAY,11225,NY
1039 W Mercury Blvd,Fast Food,Hampton,37.042684,-76.381236,Taco Bell,23666,VA
1305 Ulster Ave,Fast Food,Kingston,41.970168,-73.989586,Taco Bell,12401,NY
1314 Middle Country Rd,Fast Food Restaurants,Selden,40.861716,-73.058843,Taco Bell,11784,NY
13360 Laurel Bowie Rd,Fast Food Restaurant,Laurel,39.075181,-76.84905,Taco Bell,20708,MD
13400 HG Trueman Rd,Fast Food Restaurant,Solomons,38.34629,-76.459889,Taco Bell,20688,MD
1294 Benns Church Blvd,Fast Food Restaurants,Smithfield,36.954775,-76.601904,Taco Bell,23430,VA
1100 Rockville Pike,Fast Food Restaurants,Rockville,39.071996,-77.132483,Taco Bell,20852,MD
11257 Roger Bacon Dr,Fast Food,Reston,38.951083,-77.334351,Taco Bell,20190,VA
17786 Garland Groh Blvd,Fast Food Restaurant and Burger Joint,Hagerstown,39.655297,-77.749447,Wendy's,21740,MD
6400 Ridge Rd,Fast Food Restaurant,Sykesville,39.397767,-76.932307,Wendy's,21784,MD
3091 Solomons Island Rd,Fast Food Restaurants,Edgewater,38.93978,-76.563816,Taco Bell,21037,MD
5184 Raynor Ave,Fast Food Restaurants,Linthicum Heights,39.224062,-76.659435,Taco Bell,21090,MD
5195 Shore Dr,Fast Food,Virginia Beach,36.905947,-76.150805,Taco Bell,23455,VA
5239 John Tyler Hwy,Fast Food Restaurants,Williamsburg,37.258884,-76.74007,Taco Bell,23185,VA
3716 Brewerton Road,Fast Food,Syracuse,43.116718,-76.144406,Taco Bell,13212,NY
51 E 34th St,Fast Food,New York,40.74767,-73.982002,Dunkin' Donuts,10016,NY
2444 Virginia Ave,Fast Food Restaurants,Collinsville,36.711277,-79.907,Domino's Pizza,24078,VA
2130 E Washington St,Fast Food Restaurants,Petersburg,37.2395,-77.3687,Domino's Pizza,23803,VA
2010 S Main St,Fast Food Restaurants,Farmville,37.27401,-78.40122,Domino's Pizza,23901,VA
10614 Patterson Ave,Fast Food Restaurants,Henrico,37.5971,-77.6085,Domino's Pizza,23238,VA
66 Joshua Ln,Fast Food Restaurants,Palmyra,37.8948,-78.3044,Domino's Pizza,22963,VA
70 S Airport Dr,Fast Food Restaurants,Henrico,37.5361,-77.3226,Domino's Pizza,23075,VA
8375 Mapes Rd,Fast Food,Fort George G Meade,39.098024,-76.755445,Arby's,20755,MD
7101 Democracy Blvd,Fast Food Restaurants,Bethesda,39.022386,-77.148461,Sarku Japan,20817,MD
21 Maiden Ln,Fast Food,New York,40.709333,-74.008955,SUBWAY,10038,NY
13131 Merrick Blvd,Fast Food,Jamaica,40.6795,-73.7609,Domino's Pizza,11434,NY
13857 Queens Blvd,Fast Food Restaurants,Jamaica,40.7076,-73.8172,Domino's Pizza,11435,NY
132 W Fulton St,Fast Food Restaurants,Gloversville,43.051,-74.3516,Domino's Pizza,12078,NY
2430 Middle Country Rd,Fast Food Restaurants,Centereach,40.8581,-73.0978,Domino's Pizza,11720,NY
108 Washington Ave,Fast Food Restaurants,Endicott,42.1021,-76.0483,Domino's Pizza,13760,NY
1479 Fulton St,Fast Food,Brooklyn,40.6801,-73.9421,Domino's Pizza,11216,NY
3563 Sheridan Dr,Fast Food Restaurants,Buffalo,42.9794,-78.8013,Domino's Pizza,14226,NY
2608 Pine Ave,Fast Food Restaurants,Niagara Falls,43.095125,-79.030346,Subway,14301,NY
23845 Rogers Clark Blvd,Fast Food Restaurants,Ruther Glen,37.938581,-77.465932,Dairy Queen,22546,VA
190 Lithia Rd,Fast Food Restaurants,Wytheville,36.948654,-81.055788,Bob Evans,24382,VA
6310 Augusta Dr,Fast Food Restaurants,Springfield,38.781696,-77.180567,Bob Evans,22150,VA
10206 Atlantic Ave,Fast Food,Ozone Park,40.689809,-73.842712,Baskin-Robbins,11416,NY
1593 1st Ave,Fast Food,New York,40.774864,-73.951205,Baskin-Robbins,10028,NY
669 Hillside Avenue,Fast Food,New Hyde Park,40.742273,-73.69837,Panera Bread,11040,NY
4820 Bethesda Ave,Fast Food Restaurants,Bethesda,38.980744,-77.096725,ShopHouse Southeast Asian Kitchen,20814,MD
2825 Broadway,Fast Food,New York,40.8039,-73.967448,Subway,10025,NY
48 W 125th St,Fast Food,New York,40.806918,-73.944175,Subway,10027,NY
221 Dolson Ave,Fast Food Restaurant and Mexican Restaurant,Middletown,41.424817,-74.428715,Taco Bell,10940,NY
2280 Middle Country Rd,Fast Food Restaurant,Centereach,40.858174,-73.09132,Taco Bell,11720,NY
220 Reynolds Rd,Fast Food Restaurant,Johnson City,42.126495,-75.971326,Taco Bell,13790,NY
2186 Jericho Tpke,Fast Food Restaurant,Commack,40.842693,-73.286906,Taco Bell,11725,NY
2157 Nine Mile Point Rd,Fast Food Restaurants,Fairport,43.129114,-77.44128,Taco Bell,14450,NY
1750 Middle Country Rd,Fast Food Restaurant,Ridge,40.891991,-72.900045,Taco Bell,11961,NY
136 N Genesee St,Fast Food Restaurant and Mexican Restaurant,Utica,43.108865,-75.219611,Taco Bell,13502,NY
996 Hempstead Tpke,Fast Food Restaurant and Taco Place,Franklin Square,40.707514,-73.676553,Taco Bell,11010,NY
700 W Broad St,Fast Food Restaurants,Falls Church,38.887868,-77.179847,Burger King,22046,VA
2679 Virginia Ave,Fast Food Restaurants,Collinsville,36.712779,-79.907962,Burger King,24078,VA
1901 S Military Hwy,Fast Food Restaurant,Chesapeake,36.787332,-76.251413,Burger King,23320,VA
1901 S Military Hwy,Fast Food Restaurants,Chesapeake,36.787332,-76.251413,Burger King,23320,VA
1181 5th St SW,Fast Food Restaurant,Charlottesville,38.012708,-78.502175,Burger King,22902,VA
916 Great Bridge Blvd,Fast food restaurants,Chesapeake,36.752962,-76.271656,Burger King,23320,VA
6030 Burke Commons Rd,Fast Food Restaurant,Burke,38.78962,-77.299052,Burger King,22015,VA
3450 Winton Pl,Fast Food Restaurants,Rochester,43.097204,-77.578662,Fox's Gourmet Delicatessen,14623,NY
5737 S Transit Rd,Fast Food Restaurant,Lockport,43.147598,-78.69269,Wendy's,14094,NY
90 Jericho Tpke,Fast Food Restaurants,Jericho,40.780321,-73.559587,Wendy's,11753,NY
327 E Fairmount Ave,Fast Food Restaurant,Lakewood,42.099605,-79.302668,Wendy's,14750,NY
60 N Broadway,Fast Food Restaurants,Hicksville,40.771374,-73.527002,Wendy's,11801,NY
2123 Grand Central Ave,Fast Food Restaurants,Horseheads,42.154442,-76.821505,Wendy's,14845,NY
18 Glen Cove Rd,Fast Food Restaurant,Greenvale,40.80776,-73.627085,Wendy's,11548,NY
3513 Mckinley Pkwy,Fast Food Restaurant,Buffalo,42.789407,-78.809774,Wendy's,14219,NY
7600 Hampton Blvd,Fast Food Restaurant and Fried Chicken Joint,Norfolk,36.914675,-76.307094,Church's Chicken,23505,VA
350 Effingham St,Fried Chicken Joint and Fast Food Restaurant Park View,Portsmouth,36.838226,-76.307061,Church's Chicken,23704,VA
350 Effingham St,Fast Food Restaurant,Portsmouth,36.838226,-76.307061,Church's Chicken,23704,VA
5001 Hempstead Tpke,Fast Food Restaurant,Farmingdale,40.72894,-73.464423,Wendy's,11735,NY
1730 Hempstead Tpke,Fast Food Restaurant and Burger Joint,East Meadow,40.723612,-73.570737,Wendy's,11554,NY
157 Clinton Ave,Fast Food Restaurant,Cortland,42.60826,-76.165198,Wendy's,13045,NY
4961 Transit Rd,Fast Food Restaurant,Depew,42.88116,-78.696696,Wendy's,14043,NY
1138 N Irving,Fast Food Restaurant,Arlington,38.886749,-77.097547,Jimmy John's,22201,VA
8017 Centreville Rd,Fast Food Restaurants,Manassas,38.781918,-77.450076,Subway,20111,VA
333 Cornelia St,Fast Food Restaurant,Plattsburgh,44.697027,-73.48049,KFC,12901,NY
1131 Jefferson Davis Hwy,Fast Food Restaurants,Fredericksburg,38.307686,-77.480634,Quiznos,22401,VA
7741 Tuckerman Ln,Fast Food Restaurants,Potomac,39.040468,-77.155849,Subway,20854,MD
331 Monroe Ave,"Fast Food Restaurant, American Restaurant, and Sandwich Place",Rochester,43.148633,-77.597515,Arby's,14607,NY
739 Flatbush Ave,Fast Food Restaurants,Brooklyn,40.654906,-73.959625,SUBWAY,11226,NY
947 N Main St,Fast Food,Marion,36.842598,-81.50504,Arby's,24354,VA
947 N Main St,Fast Food Restaurants,Marion,36.842598,-81.50504,Arby's,24354,VA
244 W Seneca St,Fast Food Restaurant,Oswego,43.452684,-76.529429,Fajita Grill,13126,NY
215 N Broadway,Fast Food Restaurants,Hicksville,40.774262,-73.527633,Chipotle Mexican Grill,11801,NY
1248 Ruie Rd,Fast Food Restaurants,North Tonawanda,43.06383,-78.866143,Good Guys Pizza,14120,NY
1010 Bill Tuck Hwy 6B,Fast food restaurants,South Boston,36.686954,-78.899399,Hardee's,24592,VA
1150 S Campus Dining Hall,Fast Food Restaurants,College Park,38.99713,-76.922259,Taco Bell,20742,MD
2009 Lynnhaven Pkwy,Fast Food Restaurant,Virginia Beach,36.792669,-76.120135,Taco Bell,23456,VA
1510 1st Ave,Sandwich Place and Fast Food Restaurant Upper East Side,New York,40.771909,-73.953074,Subway,10075,NY
344042 Jerome Ave,Fast Food Restaurant,Bronx,40.881359,-73.882583,McDonald's,10467,NY
7832 Richmond Hwy,Fast Food Restaurant,Alexandria,38.745239,-77.08432,Popeyes,22306,VA
21040 Henderson Corner Rd,Fast Food,Germantown,39.204705,-77.243891,Seven-Eleven,20876,MD
1362 American Way,Fast Food Restaurant,Bedford,37.32611,-79.50191,Papa John's Pizza,24523,VA
8651 John J Kingman Rd Bldg 2321,Fast Food Restaurant,Fort Belvoir,38.724358,-77.150234,Burger King,22060,VA
9801 Metropolitan Ave,Fast Food Restaurant,Forest Hills,40.711249,-73.854415,McDonald's,11375,NY
1427 Sheepshead Bay Rd,Fast Food,Brooklyn,40.587469,-73.954371,Baskin-Robbins,11235,NY
23925 Linden Blvd,Fast Food Restaurant,Elmont,40.690328,-73.723623,Burger King/Popeyes,11003,NY
13061 Lee Jackson Memorial Hwy,Fast Food Restaurants,Fairfax,38.879508,-77.399867,Domino's Pizza,22033,VA
2011 Monticello Ave,Fast Food Restaurant and Mexican Restaurant,Norfolk,36.866936,-76.284496,Taco Bell,23517,VA
1701 Sunrise Hwy,Fast Food Restaurant,Bay Shore,40.738784,-73.245157,Old Country Buffet,11706,NY
1332 Saint Nicholas Ave,Fast Food,New York,40.846474,-73.935891,Little Caesars Pizza,10033,NY
4112 Lankford Highway,Fast Food Restaurant,Exmore,37.523204,-75.83216,KFC,23350,VA
407 N Bridge St,Fast Food Restaurant,Bedford,37.338139,-79.522246,Blimpie,24523,VA
845 E 149th St,Fried Chicken Joint and Fast Food Restaurant West Bronx,Bronx,40.812364,-73.904463,Popeyes Louisiana Kitchen,10455,NY
12401 Jefferson Ave,Fast Food Restaurants,Newport News,37.118597,-76.506158,Burger King,23602,VA
244 W 14th St,Fast Food Restaurant,New York,40.739569,-74.002058,Subway,10011,NY
16398 B Consumer Way,Fast Food Restaurant,King George,38.349644,-77.055747,Five Guys,22485,VA
690 Sunrise Hwy,Fast Food Restaurant,Baldwin,40.655954,-73.611026,Wendy's,11510,NY
275 4th Ave,Fast Food,Brooklyn,40.675359,-73.98436,McDonald's,11215,NY
9013 Metropolitan,Fast Food Restaurant,Rego Park,40.712033,-73.859114,Wendy's,11374,NY
1632 E Little Creek Rd,Fast Food Restaurant,Norfolk,36.917191,-76.230136,McDonald's,23518,VA
5801 Plank Rd,Fast Food Restaurant,Fredericksburg,38.292168,-77.568385,Wendy's,22407,VA
3220 Solomons Island Rd,Fast Food Restaurant,Edgewater,38.93232,-76.568046,Chick-fil-A,21037,MD
690 3rd Avenue,Fast Food Restaurant,New York,40.751656,-73.973905,Five Guys,10017,NY
1843 Empire Blvd,"Burger Joint, Fast Food Restaurant, and American Restaurant",Webster,43.188502,-77.505374,Charlie's Restaurant,14580,NY
200 Frederick Rd,Fast Food Restaurant,Thurmont,39.61353,-77.418722,McDonald's,21788,MD
769 Montauk Hwy,Fast food restaurants,Patchogue,40.76792,-72.986715,McDonald's,11772,NY
1 W Burnside Ave,Fast Food Restaurant,Bronx,40.853766,-73.907339,KFC,10453,NY
2481 Crain Hwy,Fast Food Restaurant,Waldorf,38.643467,-76.893637,Jimmy John's,20601,MD
12521 Rockaway Blvd,Fast Food,South Ozone Park,40.6754,-73.8124,Domino's Pizza,11420,NY
196 Annapolis Mall,Fast Food Restaurants,Annapolis,38.991851,-76.546664,Steak Escape,21401,MD
9118 Beach Channel Dr,Fast Food Restaurants,Far Rockaway,40.608686,-73.753943,McDonald's,11693,NY
86 W Main St,Fast Food Restaurants,Hancock,41.955916,-75.290912,McDonald's,13783,NY
86 E 167th St,Fast Food Restaurant,Bronx,40.835253,-73.919887,McDonald's,10452,NY
834 Fort Salonga Rd,Fast Food Restaurant,Northport,40.89911,-73.330831,McDonald's,11768,NY
82 Court St,Fast Food,Brooklyn,40.691361,-73.991562,McDonald's,11201,NY
818 Old Country Rd,Fast Food Restaurant,Plainview,40.773543,-73.482499,McDonald's,11803,NY
8 Manor Ln,Fast Food Restaurant,Saugerties,42.055433,-73.956819,McDonald's,12477,NY
788 Lake Ave,Fast Food Restaurants,Rochester,43.179574,-77.630501,McDonald's,14613,NY
7602 Flatlands Ave,Fast Food Restaurant Canarsie,Brooklyn,40.633612,-73.916209,McDonald's,11236,NY
7550 101st Ave,Fast Food Restaurants,Ozone Park,40.679757,-73.861849,McDonald's,11416,NY
7550 101st Ave,Fast Food Restaurant,Ozone Park,40.679757,-73.861849,McDonald's,11416,NY
724 E 241st St,Fast Food,Bronx,40.903036,-73.849535,McDonald's,10470,NY
704 Foote Ave,Fast Food Restaurants,Jamestown,42.081685,-79.229558,McDonald's,14701,NY
701 Utica Ave,Fast Food,Brooklyn,40.656264,-73.930859,McDonald's,11203,NY
700 Main St,Fast Food Restaurant,Arcade,42.531994,-78.449733,McDonald's,14009,NY
700 Main St,Fast Food Restaurants,Arcade,42.531994,-78.449733,McDonald's,14009,NY
6720 Pittsford Palmyra Rd,"Fast Food Restaurant, American Restaurant, and Asian Restaurant",Fairport,43.07055,-77.439709,McDonald's,14450,NY
67 Main St,Fast Food Restaurant,Le Roy,42.977242,-77.991506,McDonald's,14482,NY
618 Sunrise Hwy,Fast Food Restaurant,Rockville Centre,40.656922,-73.628594,McDonald's,11570,NY
614 Middle Country Rd,Fast Food Restaurant,Saint James,40.86011,-73.157885,McDonald's,11780,NY
6105 S Salina St,Fast Food Restaurants,Syracuse,42.982593,-76.142933,McDonald's,13205,NY
6 Gramatan Ave,Fast Food Restaurant,Mount Vernon,40.912314,-73.837247,McDonald's,10550,NY
6035 S Park Ave,Fast Food Restaurants,Hamburg,42.730504,-78.825712,McDonald's,14075,NY
2509 Flatbush Ave,Fast Food Restaurants,Brooklyn,40.608447,-73.920839,Sbarro,11234,NY
3832 State Route 13,Fast Food Restaurants,Pulaski,43.558742,-76.11894,Burger King,13142,NY
5 Old Shore Rd,Fast Food Restaurant,Port Washington,40.838347,-73.703483,Burger King,11050,NY
187 State Route 104,Fast food restaurants,Oswego,43.461803,-76.482654,Burger King,13126,NY
3007 Nys Route 417,Fast Food Restaurant and Burger Joint,Olean,42.076978,-78.463864,Burger King,14760,NY
3007 Nys Route 417,Fast Food Restaurant,Olean,42.076978,-78.463864,Burger King,14760,NY
3190 Long Beach Rd,Fast Food Restaurant,Oceanside,40.634041,-73.641251,Burger King,11572,NY
3190 Long Beach Rd,Fast food restaurants,Oceanside,40.634041,-73.641251,Burger King,11572,NY
2553 Military Rd,Fast Food Restaurant,Niagara Falls,43.106999,-78.983287,Burger King,14304,NY
154 E 116th St,Fast Food Restaurants,New York,40.798328,-73.94146,Burger King,10029,NY
10700 Bulloch Dr,Fast Food Restaurant,Manassas,38.805079,-77.521402,Wendy's,20109,VA
955 E Main St,Fast Food Restaurant,Wytheville,36.952983,-81.07454,Wendy's,24382,VA
9116 W Broad St,Fast Food Restaurants,Henrico,37.637373,-77.551002,Wendy's,23294,VA
900 Market Dr,Fast Food Restaurant,Emporia,36.699921,-77.544081,Wendy's,23847,VA
8700 Richmond Hwy,Fast Food Restaurants,Alexandria,38.721101,-77.124111,Wendy's,22309,VA
737 First Colonial Blvd,Fast Food,Virginia Beach,36.851544,-76.024951,Panera Bread,23451,VA
1412 Greenbrier Parkway,Fast Food,Chesapeake,36.776409,-76.230995,Panera Bread,23320,VA
9200 Stony Point Parkway Suite 158D,Fast Food,Richmond,37.549356,-77.5722,Panera Bread,23235,VA
499 Cummings St,Fast Food Restaurant and Burger Joint,Abingdon,36.703073,-81.974198,Wendy's,24210,VA
9548 Main St,Fast Food Restaurants,Fairfax,38.841471,-77.273415,Firehouse Subs,22031,VA
182 Church St,Fast Food Restaurant,Westernport,39.479834,-79.038953,McDonald's,21562,MD
10 Rising Sun Town Ctr,Fast Food Restaurant,Rising Sun,39.698298,-76.05739,McDonald's,21911,MD
20 E Frederick St,Fast Food,Walkersville,39.481716,-77.350312,McDonald's,21793,MD
934 York Rd,Fast Food Restaurant,Towson,39.409068,-76.608435,McDonald's,21204,MD
520 E Baltimore St,Fast Food Restaurant,Taneytown,39.649858,-77.158489,McDonald's,21787,MD
6131 Martin Luther King Jr Hwy,Fast Food Restaurant,Capitol Heights,38.901491,-76.900631,McDonald's,20743,MD
1619 E Joppa Rd,Fast Food,Towson,39.396635,-76.56688,McDonald's,21286,MD
504 E Randolph Rd,Fast Food,Silver Spring,39.075767,-77.001096,McDonald's,20904,MD
12044 Cherry Hill Rd,Fast Food,Silver Spring,39.05848,-76.955488,McDonald's,20904,MD
8637 16th St,Fast Food Restaurants,Silver Spring,38.997951,-77.038322,McDonald's,20910,MD
810 Reece Rd,Fast Food Restaurants,Severn,39.136855,-76.687508,McDonald's,21144,MD
4225 N Woods Trl,Fast Food Restaurant,Hampstead,39.596022,-76.845667,McDonald's,21074,MD
12012 Reisterstown Rd,Fast Food Restaurant and Food,Reisterstown,39.448855,-76.816375,McDonald's,21136,MD
45 Magothy Beach Rd,Fast Food Restaurants,Pasadena,39.119288,-76.517163,McDonald's,21122,MD
3425 Sweet Air Rd,Fast Food Restaurant and Food,Phoenix,39.516403,-76.558184,McDonald's,21131,MD
1136 Annapolis Rd,Fast Food Restaurants,Odenton,39.080456,-76.687406,McDonald's,21113,MD
9774 Groffs Mill Dr,Fast Food Restaurants,Owings Mills,39.405569,-76.804956,McDonald's,21117,MD
778a Elkridge Landing Rd,Fast Food Restaurant,Linthicum Heights,39.191866,-76.681838,McDonald's,21090,MD
1472 Martin Blvd,Fast Food,Middle River,39.32794,-76.434612,McDonald's,21220,MD
14801 Baltimore Ave,Fast Food Restaurant,Laurel,39.093687,-76.854866,Burger King,20707,MD
2375 Crain Hwy,Fast Food Restaurants,Waldorf,38.645521,-76.890608,Burger King,20601,MD
3183 Atlantic Ave,Fast Food,Brooklyn,40.679939,-73.877963,Wendy's,11208,NY
9001 Ditmas Ave,Fast Food Restaurant,Brooklyn,40.648098,-73.91473,Wendy's,11236,NY
9001 Ditmas Ave,Fast Food,Brooklyn,40.648098,-73.91473,Wendy's,11236,NY
19 W 170th St,Fast Food,Bronx,40.840659,-73.919052,Wendy's,10452,NY
2140 Westchester Ave,Fast Food Restaurant,Bronx,40.833993,-73.853065,Wendy's,10462,NY
170 Main St,Fast Food Restaurant,Binghamton,42.103455,-75.930648,Wendy's,13905,NY
14409 Warwick Blvd,Fast Food,Newport News,37.129609,-76.538547,Taco Bell,23608,VA
6145 188th St,Fast Food,Fresh Meadows,40.739507,-73.785963,Boston Market,11365,NY
6145 188th St,Fast Food Restaurant,Fresh Meadows,40.739507,-73.785963,Boston Market,11365,NY
102 Broadview Ave,Fast Food Restaurants,Warrenton,38.71991,-77.806848,Subway,20186,VA
2884 Virginia Beach Blvd,Fast Food Restaurants,Virginia Beach,36.844243,-76.070867,Subway,23452,VA
1830 Kempsville Rd,Fast Food Restaurants,Virginia Beach,36.781077,-76.19073,Subway,23464,VA
2966 Lee Hwy,Fast Food Restaurants,Troutville,37.388819,-79.900771,Subway,24175,VA
1524 Holland Rd,Sandwiches / Fast Food / American,Suffolk,36.723769,-76.637038,Subway,23434,VA
6356 Jefferson Davis Hwy,Fast Food Restaurants,Spotsylvania,38.135077,-77.521745,Subway,22551,VA
1788 Calohan Rd,Fast Food Restaurants,Rustburg,37.27826,-79.166758,Subway,24588,VA
1313 Broadway,Fast Food Restaurant,New York,40.750088,-73.988068,Burger King,10001,NY
11121 Ocean Gtwy,Fast Food Restaurants,Berlin,38.347576,-75.17101,Domino's Pizza,21811,MD
8620 Belair Rd,Fast Food Restaurants,Nottingham,39.3896,-76.4912,Domino's Pizza,21236,MD
391 Jay St,Sandwich Place and Fast Food Restaurant Downtown Brooklyn,Brooklyn,40.692164,-73.987297,Subway,11201,NY
350 E Pulaski Hwy,Fast Food Restaurants,Elkton,39.598042,-75.817131,Pizza Hut,21921,MD
541 Lake Ave,Fast Food Restaurants,Rochester,43.174676,-77.630208,Popeyes Louisiana Kitchen,14613,NY
5663 East Circle Drive,Fast Food,Cicero,43.150471,-76.123544,Panera Bread,13039,NY
1513 Martinsburg Pike,Fast Food Restaurant,Winchester,39.215116,-78.143619,Burger King,22603,VA
1535 W Broad St,Fast Food Restaurants,Waynesboro,38.07313,-78.900855,Burger King,22980,VA
524 Laskin Rd,Fast Food Restaurants,Virginia Beach,36.858948,-75.983293,Burger King,23451,VA
716 Hardy Rd,"American Restaurant, Fast Food Restaurant, and Event Space",Vinton,37.273364,-79.890765,Burger King,24179,VA
815 W Main St,Fast Food Restaurants,Salem,37.290968,-80.071492,Burger King,24153,VA
4010 Halifax Rd,Fast Food Restaurants,South Boston,36.73692,-78.919045,Burger King,24592,VA
800 Tanyard Rd,Fast Food Restaurant,Rocky Mount,37.007027,-79.876734,Burger King,24151,VA
3216 Melrose Ave NW,Fast Food Restaurants,Roanoke,37.290059,-79.988863,Burger King,24017,VA
8801 Staples Mill Rd,Fast Food Restaurant,Henrico,37.632945,-77.508409,Burger King,23228,VA
2601 Chamberlayne Ave,Fast Food Restaurants,Richmond,37.566913,-77.443819,Burger King,23222,VA
1013 N Parham Rd,Fast Food Restaurant,Henrico,37.594346,-77.566351,Burger King,23229,VA
11274 Patterson Ave,Fast Food Restaurant,Henrico,37.597973,-77.620605,Burger King,23238,VA
7438 Lee Hwy,Fast Food Restaurant,Radford,37.142765,-80.579745,Burger King,24141,VA
807 E Parham Rd,Fast Food Restaurant,Richmond,37.634917,-77.456813,Dairy Queen,23227,VA
807 E Parham Rd,Ice Cream Shop and Fast Food Restaurant,Richmond,37.634917,-77.456813,Dairy Queen,23227,VA
6690 Greensboro Rd,Fast Food Restaurants,Ridgeway,36.599513,-79.862318,Dairy Queen,24148,VA
2901 W Main St,Fast Food Restaurant and Mexican Restaurant,Waynesboro,38.081532,-78.927439,Taco Bell,22980,VA
4597 Virginia Beach Blvd,Fast Food Restaurant and Mexican Restaurant,Virginia Beach,36.84314,-76.136219,Taco Bell,23462,VA
13600 Baltimore Ave,Fast Food Restaurants,Laurel,39.076247,-76.868233,Chick-fil-A,20707,MD
19945 Century Blvd,Fast Food Restaurant,Germantown,39.183474,-77.262639,Chick-fil-A,20874,MD
6709 Ritchie Hwy,Fast Food Restaurants,Glen Burnie,39.192571,-76.613391,Chick-fil-A,21061,MD
221 Williams St,"Fast Food Restaurant, American Restaurant, and Sandwich Place",Cumberland,39.648138,-78.756651,Chick-fil-A,21502,MD
1723 Whetstone Way,Fast Food Restaurant,Baltimore,39.268428,-76.599851,Jimmy John's,21230,MD
8191 Strawberry Lane Suite A,Fast Food,Falls Church,38.871776,-77.227668,Panera Bread,22042,VA
1323 Policy Dr,Fast Food Restaurant,Belcamp,39.477741,-76.248363,Arby's,21017,MD
2 Metrotech Center,Fast Food Restaurant,Brooklyn,40.693702,-73.98568,Five Guys,11201,NY
982 Edwards Ferry Rd NE,Fast Food Restaurants,Leesburg,39.114414,-77.53883,Taco Bell,20176,VA
2767 State Route 31,Fast Food Restaurants,Weedsport,43.056087,-76.557567,Arby's,13166,NY
1250 Creek St,Fast Food Restaurant,Webster,43.188955,-77.502951,Arby's,14580,NY
787 Erie Blvd W,Fast Food Restaurants,Syracuse,43.047896,-76.170271,Arby's,13201,NY
787 Erie Blvd W,Fast Food Restaurant,Syracuse,43.047896,-76.170271,Arby's,13201,NY
581 Miracle Mile Dr,Fast Food Restaurants,Rochester,43.08629,-77.631052,Arby's,14623,NY
436 Greece Ridge Center Dr,"Fast Food Restaurant, Sandwich Place, and American Restaurant",Rochester,43.206775,-77.690729,Arby's,14626,NY
2432 Niagara St,Fast Food Restaurant,Niagara Falls,43.088655,-79.031872,Dairy Queen,14303,NY
2432 Niagara St,Fast Food Restaurants,Niagara Falls,43.088655,-79.031872,Dairy Queen,14303,NY
4234 Electric Road,Fast Food Restaurant,Roanoke,37.229535,-79.978754,Five Guys,24018,VA
3937 State Route 281,Fast Food Restaurants,Cortland,42.59693,-76.205303,Subway,13045,NY
2 E Buffalo St,Sandwiches / Fast Food / American,Churchville,43.104367,-77.884589,Subway,14428,NY
4327 S Buffalo St,Fast Food Restaurants,Orchard Park,42.765624,-78.743723,Subway,14127,NY
9060 Pocahontas Trl,Fast Food Restaurants,Providence Forge,37.436782,-77.015402,Subway,23140,VA
423 Wythe Creek Rd,Fast Food Restaurants,Poquoson,37.122731,-76.392054,Subway,23662,VA
4533 Commonwealth Centre Pkwy,Fast Food Restaurants,Midlothian,37.419871,-77.635354,Subway,23112,VA
2444 Greensboro Rd,Fast Food Restaurants,Martinsville,36.657581,-79.879457,Subway,24112,VA
1121 N Main St,Fast Food Restaurants,Marion,36.844211,-81.501497,Subway,24354,VA
889 N Lee Hwy,Fast Food Restaurants,Lexington,37.798372,-79.420525,Subway,24450,VA
1299 Bergen St,Fast Food Restaurant Crown Heights,Brooklyn,40.675683,-73.942045,Git-It-N-Git,11213,NY
3240 Chili Ave,Fast Food Restaurants,Rochester,43.105837,-77.751695,Subway,14624,NY
1000 E Henrietta Rd,Fast Food Restaurants,Rochester,43.09998,-77.614062,Subway,14623,NY
100 Main St,Fast Food Restaurants,Windsor,42.076386,-75.639831,Subway,13865,NY
661 Miracle Mile Dr,Fast Food Restaurants,Rochester,43.086636,-77.632082,Subway,14623,NY
3400 Monroe Ave,Fast Food Restaurants,Rochester,43.102222,-77.53524,Subway,14618,NY
225 Brierhill Dr,Fast Food Restaurants,Bel Air,39.541712,-76.326385,Smoothie King,21015,MD
8669 Philadelphia Rd,Fast Food Restaurants,Rosedale,39.33551,-76.492509,Popeyes Louisiana Kitchen,21237,MD
2469 E Little Creek Rd,Fast Food,Norfolk,36.914913,-76.212804,Taco Bell,23518,VA
559 James Madison Hwy,Fast Food Restaurants,Culpeper,38.480533,-77.982122,Taco Bell,22701,VA
578 Richie Hwy,Fast Food Restaurant,Severna Park,39.075311,-76.544566,Taco Bell,21146,MD
1793A Southcreek One,Fast Food Restaurants,Powhatan,37.515553,-77.792264,Taco Bell,23139,VA
10300 Little Patuxent Pkwy,Fast Food Restaurants,Columbia,39.218843,-76.858743,Great Wraps,21044,MD
1758 Pitkin Ave,Fast Food,Brooklyn,40.67,-73.9082,Domino's Pizza,11212,NY
31 Heather Ln,Fast Food Restaurant and Burger Joint,Perryville,39.589088,-76.06508732,Wendy's,21903,MD
1164 Jericho Tpke,Fast Food Restaurant,Commack,40.846,-73.2661,KFC,11725,NY
560 Cord Route 111,Fast Food Restaurant,Manorville,40.8688,-72.7945,McDonald's,11949,NY
594 Middle Country Rd,Fast Food Restaurant,Saint James,40.8596,-73.1611,KFC,11780,NY
533 Medford Ave,Fast Food Restaurant,Patchogue,40.7874,-73.0084,KFC,11772,NY
9145 Chamberlayne Rd,Fast Food Restaurant,Mechanicsville,37.64872,-77.40623,McDonald's,23116,VA
4386 S Laburnum Ave,Fast Food Restaurants,Henrico,37.52913,-77.35845,Subway,23231,VA
1024 Beards Hill Rd,Fast Food Restaurants,Aberdeen,39.52208136,-76.17993336,Bob Evans Restaurant,21001,MD
9865 Jefferson Davis Hwy,Fast Food Restaurants,Fredericksburg,38.225912,-77.503549,Arby's,22407,VA
9910 Southpoint Pkwy,Fast Food Restaurant,Fredericksburg,38.23403,-77.50437,Wendy's,22407,VA
170 Hoosick St,Fast Food Restaurant,Troy,42.73881,-73.67544,McDonald's,12180,NY
7727 Tuckerman Ln,Fast Food Restaurants,Potomac,39.037987,-77.154818,California Tortilla,20854,MD
300 W Pratt St,Fast Food Restaurants,Baltimore,39.286298,-76.619322,California Tortilla,21201,MD
13500 Hg Trueman Road,Fast Food Restaurant,Solomons,38.3458,-76.461,McDonald's,20688,MD
13500 Hg Trueman Road,Fast Food,Solomons,38.3458,-76.461,McDonald's,20688,MD
171 W Old Crossroad,Fast Food Restaurant,New Market,38.648,-78.6745,McDonald's,22844,VA
212 E Main St,Fast Food Restaurants,Charlottesville,38.03005,-78.48051,Citizen Burger Bar,22902,VA
1230 Emmet St N,Fast Food Restaurants,Charlottesville,38.053337,-78.498193,Arby's,22903,VA
941 Emmet St N,Fast Food Restaurant,Charlottesville,38.04883,-78.50341,McDonald's,22903,VA
3880 Hempstead Tpke,Fast Food Restaurant,Levittown,40.7255,-73.4924,KFC,11756,NY
3422 Jerome Ave,Fast Food,Bronx,40.881172,-73.88301,SUBWAY,10467,NY
1011 N Rolling Rd,Fast Food,Catonsville,39.28465,-76.75209,McDonald's,21228,MD
3100 Lord Baltimore Dr,Fast Food Restaurants,Windsor Mill,39.33715,-76.75168,Festival Eatery,21244,MD
70 Kent Town Market,Fast Food Restaurant,Chester,38.97444,-76.27724,Taco Bell,21619,MD
188 Main St,Fast Food Restaurant,Annapolis,38.97809,-76.4907,Mason's Famous Lobster Rolls,21401,MD
3326 Pump Rd,Fast Food Restaurants,Henrico,37.647361,-77.614828,Subway,23233,VA
3542 Electric Rd,Fast Food Restaurants,Roanoke,37.225877,-79.997452,Subway,24018,VA
3325 Wilson Blvd,Fast Food Restaurant,Arlington,38.88365,-77.099486,All About Burger,22201,VA
554 5th Ave,Fast Food,Brooklyn,40.75581,-73.97929,Domino's Pizza,11215,NY
554 5th Ave,Fast Food Restaurants,Brooklyn,40.75581,-73.97929,Domino's Pizza,11215,NY
650 86th St,Hot Dog Joint and Fast Food Restaurant,Brooklyn,40.618378,-74.02185,Nathan's Famous,11228,NY
20 Hempstead Ave,Fast Food Restaurants,Hempstead,40.70408891,-73.6384697,KFC,11550,NY
11700 Morning Gate Ln,Fast Food Restaurant,New Market,39.385,-77.2567,McDonald's,21774,MD
7285 Battle Hill Dr,Fast Food Restaurants,Mechanicsville,37.60824,-77.35565,Chick-fil-A,23111,VA
680 Southpark Blvd,Fast Food Restaurants,Colonial Heights,37.247324,-77.389747,Wendy's,23834,VA
6322 Kenwood Ave,Fast Food Restaurants,Rosedale,39.33873,-76.50512,Subway,21237,MD
7708 Landover Rd,Fast Food Restaurants,Hyattsville,38.92749,-76.88092,McDonald's,20785,MD
9598 Livingston Rd,Fast Food Restaurants,Fort Washington,38.75852,-76.99477,Taco Bell,20744,MD
262 Boston Post Rd,Fast Food Restaurant,Port Chester,40.99649,-73.672113,KFC,10573,NY
1556 Myrtle Ave,Fast Food,Brooklyn,40.699341,-73.911385,KFC,11237,NY
245 Meadow Dr,Fast Food Restaurant,North Tonawanda,43.052336,-78.876737,Taco Bell,14120,NY
601 King St,Fast Food Restaurants,Alexandria,38.80491841,-77.04584241,Chipotle Mexican Grill,22314,VA
2602 Columbia Pike,Fast Food Restaurants,Arlington,38.8629,-77.0853,Domino's Pizza,22204,VA
5159 Waterway Dr,Fast Food Restaurants,Dumfries,38.6104,-77.3588,Domino's Pizza,22025,VA
350 Fortune Ter,Fast Food Restaurants,Potomac,39.062347,-77.15924,Domino's Pizza,20854,MD
1360 Fordham Dr,Fast Food Restaurants,Virginia Beach,36.798636,-76.176121,Taco Bell,23464,VA
8131 Timberlake Rd,Fast Food Restaurant and Mexican Restaurant,Lynchburg,37.343361,-79.235356,Taco Bell,24502,VA
49 E Midland Trl,Fast Food Restaurant,Lexington,37.776582,-79.433171,Taco Bell,24450,VA
2802 Candlers Mountain Rd,Fast Food Restaurant and Mexican Restaurant,Lynchburg,37.369977,-79.181467,Taco Bell,24502,VA
2391 George Washington Memorial Hwy,Fast Food Restaurant,Hayes,37.274484,-76.498423,Taco Bell,23072,VA
3551 Plank Rd,Fast Food Restaurants,Fredericksburg,38.293087,-77.521158,Taco Bell,22407,VA
5197 Shore Dr,Fast Food Restaurant and Sandwich Place Bayside,Virginia Beach,36.906025,-76.151578,Arby's,23455,VA
1720 General Booth Blvd,Fast Food Restaurants,Virginia Beach,36.780852,-76.001515,Arby's,23454,VA
1720 General Booth Blvd,"Fast Food Restaurant, Sandwich Place, and American Restaurant",Virginia Beach,36.780852,-76.001515,Arby's,23454,VA
1768 Laskin Rd,"Fast Food Restaurant, American Restaurant, and Sandwich Place Great Neck",Virginia Beach,36.85047,-76.026024,Arby's,23454,VA
2101 West Main Street,Fast Food,Salem,37.287862,-80.096023,Arby's,24153,VA
685 Brandon Ave,Fast Food Restaurant,Roanoke,37.256934,-79.957766,Arby's,24014,VA
9080 W Broad St,"Fast Food Restaurant, Sandwich Place, and American Restaurant",Henrico,37.636727,-77.549289,Arby's,23294,VA
1401 Jameson Ave SE,Fast Food,Roanoke,37.271818,-79.919915,Arby's,24013,VA
3944 Brambleton Ave SW,Fast Food,Roanoke,37.231659,-80.007647,Arby's,24018,VA
3944 Brambleton Ave SW,Fast Food Restaurant,Roanoke,37.231659,-80.007647,Arby's,24018,VA
3944 Brambleton Ave SW,"Fast Food Restaurant, Sandwich Place, and American Restaurant",Roanoke,37.231659,-80.007647,Arby's,24018,VA
58 S Carlton St,Fast Food Restaurants,Harrisonburg,38.443475,-78.856123,Arby's,22801,VA
7411 Midlothian Tpke,Fast Food Restaurants,Richmond,37.499387,-77.532852,Arby's,23225,VA
5205 Brook Rd,Fast Food Restaurants,Richmond,37.60219,-77.454039,Arby's,23227,VA
10831 Promenade Lane,Fast Food Restaurant,Manassas,38.7967,-77.519425,Arby's,20109,VA
1202 E LynchburgSalem Hwy,"Fast Food Restaurant, American Restaurant, and Sandwich Place",Bedford,37.323604,-79.495288,Arby's,24523,VA
1202 E LynchburgSalem Hwy,Fast Food,Bedford,37.323604,-79.495288,Arby's,24523,VA
13220 Midlothian Turnpike,Fast Food,Midlothian,37.503028,-77.644177,Arby's,23113,VA
9874 Liberia Ave,Fast Food Restaurant,Manassas,38.741455,-77.451666,Arby's,20110,VA
4783 S Amherst Hwy,Fast Food,Madison Heights,37.441893,-79.119418,Arby's,24572,VA
21717 Timberlake Rd,Fast Food,Lynchburg,37.326647,-79.250656,Arby's,24502,VA
3200 W Mercury Blvd,Fast Food,Hampton,37.033187,-76.417821,Arby's,23666,VA
109 Market Dr,Fast Food,Emporia,36.703902,-77.541463,Arby's,23847,VA
1700 Timberwood Blvd,Fast Food Restaurants,Charlottesville,38.129807,-78.437118,Arby's,22911,VA
193 Grant Ave,Fast Food Restaurant,Auburn,42.948394,-76.548617,Arby's,13021,NY
810 Canandaigua Rd,Fast Food Restaurant and Mexican Restaurant,Geneva,42.85712399,-77.01211988,KFC,14456,NY
810 Canandaigua Rd,Fast Food Restaurant and Mexican Restaurant,Geneva,42.85699,-77.01323,Taco Bell,14456,NY
210 Kernstown Commons Blvd,Fast Food Restaurants,Winchester,39.1196,-78.19632,McDonald's,22602,VA
170 S Broadway,Fast Food Restaurants,Saratoga Springs,43.07199,-73.78753,SUBWAY,12866,NY
3010 Route 50,Fast Food Restaurant,Saratoga Springs,43.09943179,-73.74909639,KFC,12866,NY
3010 Route 50,Fried Chicken Joint and Fast Food Restaurant,Saratoga Springs,43.09943179,-73.74909639,KFC,12866,NY
275 S Ridge St,Fast Food Restaurants,Port Chester,40.99988,-73.68072,Westchester Burger Company,10573,NY
6100 Jefferson Ave,Fast Food,Newport News,37.02093,-76.44534,McDonald's,23605,VA
1921 Emmorton Rd,Fast Food Restaurants,Bel Air,39.50387,-76.32682,SONIC Drive In,21015,MD
400 N Center St,Fast Food Restaurant,Westminster,39.57594,-76.98248,KFC,21157,MD
130 Baltimore Pike,Fast Food Restaurants,Bel Air,39.5326,-76.349,KFC,21014,MD
400 Route 211 E,Fast Food Restaurant,Middletown,41.45432,-74.38669,Boston Market,10940,NY
78 Brookside Ave,Fast Food Restaurant,Chester,41.35968032,-74.28361787,Wendy's,10918,NY
753 Main St,Fast Food Restaurant,Poughkeepsie,41.6972,-73.9042,Wendy's,12603,NY
2001 South Rd,Fast Food Restaurant,Poughkeepsie,41.625353,-73.920853,Wendy's,12601,NY
3250 Erie Blvd E,Fast Food Restaurant,Syracuse,43.049934,-76.072566,Arby's,13214,NY
3250 Erie Blvd E,Fast Food,Syracuse,43.049934,-76.072566,Arby's,13214,NY
5526 State Highway 7,Fast Food,Oneonta,42.458791,-75.022058,Arby's,13820,NY
100 Mall Blvd,Fast Food Restaurants,Lakewood,42.09619,-79.306838,Arby's,14750,NY
10438 Bennett Rd,Fast Food Restaurant,Fredonia,42.455818,-79.310045,Arby's,14063,NY
798 E Main St,Fast Food Restaurants,Cobleskill,42.679896,-74.4734,Arby's,12043,NY
2802 E Main St,Fast Food Restaurants,Endicott,42.105602,-76.0294,Arby's,13760,NY
400 Towne Dr,Fast Food Restaurant,Fayetteville,43.02978,-76.01843,McDonald's,13066,NY
400 Towne Dr,Fast Food Restaurants,Fayetteville,43.02978,-76.01843,McDonald's,13066,NY
3330 Donnell Dr,Fast Food Restaurants,District Heights,38.846222,-76.884362,Taco Bell,20747,MD
3330 Donnell Dr,Fast Food Restaurant,District Heights,38.846222,-76.884362,Taco Bell,20747,MD
1423 150th St,Fast Food,Whitestone,40.787632,-73.8133,Dunkin' Donuts,11357,NY
5401 108th St,Fast Food,Corona,40.742123,-73.854095,Dunkin' Donuts,11368,NY
7696 Dorchester Blvd,Fast Food Restaurants,Hanover,39.15498208,-76.74284762,Subway,21076,MD
819 Taylor Ave,Fast Food Restaurants,Towson,39.386181,-76.578856,Subway,21286,MD
6315 Oxon Hill Rd,Fast Food Restaurant,Oxon Hill,38.803287,-76.990551,Taco Bell,20745,MD
578 Ritchie Hwy,Fast Food Restaurants,Severna Park,39.075701,-76.54429,Taco Bell,21146,MD
10810 Baltimore Ave,Fast Food Restaurants,Beltsville,39.03136,-76.912377,Taco Bell,20705,MD
6841 Loch Raven Blvd,Fast Food Restaurants,Towson,39.383659,-76.577766,Lake Trout two,21286,MD
966 3rd Ave,Fast Food,New York,40.760879,-73.967473,McDonald's,10022,NY
1262 Vocke Rd Ste 284,Fast Food Restaurant,Cumberland,39.63143,-78.83501,Chick-fil-A,21502,MD
1103 E Oldtown Rd,Fast Food Restaurants,Cumberland,39.6361,-78.74726,Oscar's Restaurant,21502,MD
69 S Market St,Fast Food Restaurants,Frederick,39.41247,-77.41153,Subway,21701,MD
227 Old Pipers Gap Rd,Fast Food Restaurant,Lambsburg,36.578728,-80.73906,McDonald's,24351,VA
109 Drury Dr,Fast Food Restaurant,La Plata,38.54708,-76.98389,McDonald's,20646,MD
109 Drury Dr,Fast food restaurants,La Plata,38.54708,-76.98389,McDonald's,20646,MD
46350 Lexington Village Way,Fast Food Restaurants,Lexington Park,38.2857,-76.4781,Sonic Drive-In,20653,MD
1103 Upper Front St,Fast Food Restaurants,Binghamton,42.14679,-75.90213,Sonic Drive-In,13905,NY
19 Sullivan Avenue,Fast Food,Liberty,41.784585,-74.729224,Taco Bell,12754,NY
1545 Richmond Rd,Fast Food Restaurant,Williamsburg,37.292,-76.7233,KFC,23185,VA
6547 Market Dr,Fast Food Restaurants,Gloucester,37.39241,-76.52652,SUBWAY,23061,VA
1905 Pocahontas Trl,Fast Food Restaurants,Williamsburg,37.24692,-76.6577,Taco Bell,23185,VA
1020 Gateway Rd,Fast Food,Edgewood,39.43401,-76.32035,Seven-Eleven,21040,MD
5103 Oaklawn Blvd,Fast Food Restaurants,Hopewell,37.262,-77.32473,Wendy's,23860,VA
635 Old Country Rd,Burger Joint and Fast Food Restaurant,Westbury,40.75047,-73.57493,Checkers,11590,NY
1101 S Salisbury Blvd,Fast Food Restaurant,Salisbury,38.3483,-75.602,Wendy's,21801,MD
3100 Ash Rd,Fast Food Restaurants,Vestal,42.09698,-76.00475,Burger King,13850,NY
167 Main St,Fast Food,Binghamton,42.10326,-75.93058,McDonald's,13905,NY
140 Frederick Rd,Fast Food Restaurants,Thurmont,39.61571,-77.41753,Seven-Eleven,21788,MD
53 Maple St,Fast Food,Dansville,42.56594,-77.70906,McDonald's,14437,NY
161 W Rockingham St,Fast Food Restaurants,Elkton,38.40742,-78.62098,McDonald's,22827,VA
1691 E Market St,Fast Food Restaurant,Harrisonburg,38.43303,-78.84609,Chick-fil-A,22801,VA
913 W State St,Fast Food Restaurant,Olean,42.07716,-78.44064,Taco Bell,14760,NY
3406 Urbana Pike,Fast Food Restaurant,Frederick,39.32567,-77.34894,McDonald's,21704,MD
340 Route 202,Fast Food Restaurants,Pomona,41.1871,-74.0341,Ocean Empire Restaurant,10970,NY
125 S Route 9W,Fast Food Restaurant,West Haverstraw,41.20081235,-73.98399663,Wendy's,10993,NY
1350 US Highway 211 W,Fast Food Restaurant,Luray,38.66072,-78.495893,Taco Bell,22835,VA
2350 N Salisbury Blvd,Fast Food Restaurants,Salisbury,38.402129,-75.570409,Arby's,21801,MD
13450 Carrollton Blvd,Fast Food,Carrollton,36.95206,-76.53143,Sonic Drive-In,23314,VA
2300 N Salisbury Blvd Ste G115,Fast Food Restaurant,Salisbury,38.40015,-75.57026,Chick-fil-A,21801,MD
1111 S Salisbury Blvd,Fast Food,Salisbury,38.347755,-75.601957,Arby's,21801,MD
339 Main St,Fast Food Restaurants,Johnson City,42.11624,-75.9606,McDonald's,13790,NY
2710 E Main St,Fast Food Restaurant,Endicott,42.10531,-76.03019,Lupo's Char-Pit,13760,NY
3333 E Main St,Fast Food Restaurants,Endicott,42.10713,-76.02056,McDonald's,13760,NY
1534 E Pembroke Ave,Fast Food Restaurant,Hampton,37.03738,-76.31448,McDonald's,23663,VA
3287 Worth Xing,Fast Food Restaurant Forest Lakes,Charlottesville,38.12785,-78.43932,McDonald's,22911,VA
1770 W Main St,Fast Food Restaurant,Riverhead,40.91715761,-72.70985177,McDonald's,11901,NY
1487 Route 9,Fast Food Restaurants,Clifton Park,42.83693,-73.74037,McDonald's,12065,NY
5817 Plank Rd,Fast Food Restaurant,Fredericksburg,38.29226,-77.57005,Sonic Drive-In,22407,VA
5863 S Transit Rd,Fast Food Restaurant,Lockport,43.1398,-78.69638,McDonald's,14094,NY
3078 Route 22,Fast Food Restaurants,Dover Plains,41.73505,-73.57985,McDonald's,12522,NY
3078 Route 22,Fast Food Restaurant,Dover Plains,41.73505,-73.57985,McDonald's,12522,NY
636 Union Blvd,Fast Food Restaurants,West Islip,40.71075,-73.29344,Little Italy,11795,NY
785 Deer Park Ave,Fast Food Restaurants,North Babylon,40.72208,-73.32252,Mangia Pizza,11703,NY
10160 Baltimore National Pike,Fast Food,Ellicott City,39.279623,-76.86153,Sonic Drive-In,21042,MD
100 Consumer Square,Fast Food,Plattsburgh,44.695253,-73.486899,Panera Bread,12901,NY
7410 Assateague Dr,"Fast Food Restaurant, Sandwich Place, and American Restaurant Savage - Guilford",Jessup,39.168707,-76.787327,Arby's,20794,MD
8203 Veterans Hwy,Fast Food Restaurant,Millersville,39.11703,-76.6334,Wendy's,21108,MD
2217F Defense Hwy,Fast Food Restaurant,Crofton,38.992137,-76.695833,Burger King,21114,MD
1417 Crain Hwy N,Fast Food Restaurant,Glen Burnie,39.18684,-76.61353,Checkers,21061,MD
7057 Arundel Mills Blvd,Fast Food Restaurant,Hanover,39.153257,-76.7276013,Wendy's,21076,MD
8227 Liberty Rd,Fast Food Restaurant,Windsor Mill,39.35582,-76.7644,McDonald's,21244,MD
1600 Cedar Rd,Fast Food Restaurant,Chesapeake,36.72701,-76.29931,Sonic Drive-In,23322,VA
336 E 23rd St,Fast Food Restaurant,New York,40.737024,-73.979477,McDonald's,10010,NY
1438 Liberty Rd,Fast Food Restaurant,Sykesville,39.402646,-76.944003,Arby's,21784,MD
3290 Centennial Ln,Fast Food Restaurants,Ellicott City,39.279041,-76.860958,Arby's,21042,MD
666 Bushwick Ave,Fast Food,Brooklyn,40.697245,-73.932155,KFC - Kentucky Fried Chicken,11221,NY
5765 Broadway,Fast Food Restaurants,Bronx,40.88378,-73.90176,McDonald's,10463,NY
5765 Broadway,Fast Food,Bronx,40.88378,-73.90176,McDonald's,10463,NY
5711 Columbia Pike,Fast Food Restaurants,Falls Church,38.8512,-77.1272,KFC,22041,VA
8377 Leesburg Pike,"Sandwich Place, Fast Food Restaurant, and Shopping Mall",Vienna,38.92174757,-77.23616795,Subway,22182,VA
8377 Leesburg Pike,Fast Food Restaurant,Vienna,38.92174757,-77.23616795,Subway,22182,VA
6310 Backlick Rd,Fast Food Restaurant,Springfield,38.7815,-77.1858,KFC,22150,VA
1100 S Hayes St,Fast Food Restaurants,Arlington,38.8648,-77.0598,Taco Bell,22202,VA
4747 Shore Dr,Fast Food Restaurant and Burger Joint,Virginia Beach,36.90378,-76.13446,Wendy's,23455,VA
4747 Shore Dr,Fast Food Restaurant,Virginia Beach,36.90378,-76.13446,Wendy's,23455,VA
2249 Upton Dr,Fast Food Restaurant,Virginia Beach,36.75496832,-76.00808324,Burger King,23454,VA
3581 Holland Rd,Fast Food Restaurant,Virginia Beach,36.81232,-76.09725,Sonic Drive-In,23452,VA
602 New Loudon Rd,Fast Food Restaurant,Latham,42.72841371,-73.76069372,Five Guys,12110,NY
274 Delaware Ave,Fast Food Restaurant,Albany,42.64306475,-73.77592486,KFC,12209,NY
109 State St,Fast Food Restaurants,Schenectady,42.8154,-73.9471,KFC,12305,NY
420 Balltown Rd,Fast Food Restaurants,Schenectady,42.77463,-73.89348,Taco Bell,12304,NY
7710 Wise Ave,Fried Chicken Joint and Fast Food Restaurant,Dundalk,39.26979,-76.5016,KFC,21222,MD
205 Back River Neck Rd,Fast Food Restaurant,Essex,39.30762,-76.4433,McDonald's,21221,MD
205 Back River Neck Rd,Fast Food,Essex,39.30762,-76.4433,McDonald's,21221,MD
7306 McClean Blvd,Fast Food Restaurant,Parkville,39.372797,-76.567488,KFC,21234,MD
6833 Loch Raven Blvd,Fast Food Restaurants,Towson,39.38312,-76.57796,Stoko's,21286,MD
330 Larkin Dr,Fast Food Restaurant,Monroe,41.31944386,-74.14818128,Taco Bell,10950,NY
2076 State Route 208,Fast Food Restaurant and Burger Joint,Montgomery,41.512497,-74.20669,Burger King,12549,NY
19 Rector St,Fast Food,New York,40.707928,-74.01395,Dunkin Donuts,10006,NY